ORBCOMM FM115 [+]       
1 41186U 15081H   23263.11741035  .00001288  00000+0  30188-3 0  9994
2 41186  46.9991 178.1263 0000915 343.3675  16.7181 14.59903195414755
ORBCOMM FM108 [+]       
1 41187U 15081J   23262.71786327  .00001129  00000+0  29250-3 0  9995
2 41187  47.0040 227.0242 0003309 285.1420  74.9098 14.55896531414063
ORBCOMM FM117 [+]       
1 41188U 15081K   23262.27126072  .00001135  00000+0  29385-3 0  9998
2 41188  47.0000 228.0922 0003992 290.7475  69.2982 14.55882058414019
ORBCOMM FM116 [+]       
1 41189U 15081L   23262.60445154  .00001226  00000+0  31436-3 0  9992
2 41189  47.0030 316.3338 0001903 342.3336  17.7482 14.55893037412891
